stk.v.4.3 

BEGIN Ephemeris 
 
NumberOfEphemerisPoints		146 
ScenarioEpoch	    3 Sep 2020 17:17:21.615647078 
InterpolationMethod		Lagrange 
InterpolationOrder		5 
CentralBody				Earth 
CoordinateSystem			TEME 
CoordinateSystemEpoch	  3 Sep 2020 17:17:21.615647078 
DistanceUnit			Kilometers 
 
EphemerisTimePosVel 
 
       0.00000000   -2316.40045878   -6773.76195541       0.04848419  0.447005770 -0.143078676  7.448679372
 END Ephemeris 
